IRIDIUM 106             
1 41917U 17003A   25095.50733867  .00000074  00000+0  19262-4 0  9997
2 41917  86.3912 271.3923 0001613  96.9221 263.2158 14.34218061430475
IRIDIUM 103             
1 41918U 17003B   25095.56442269  .00000096  00000+0  27052-4 0  9997
2 41918  86.3912 271.2692 0002006  73.7536 286.3880 14.34218123430519
IRIDIUM 109             
1 41919U 17003C   25095.22192247  .00000095  00000+0  26929-4 0  9990
2 41919  86.3913 271.4649 0002287  86.7293 273.4165 14.34218043430446
IRIDIUM 102             
1 41920U 17003D   25095.53905304  .00000083  00000+0  22437-4 0  9999
2 41920  86.3910 271.2648 0002185  95.3762 264.7683 14.34218154430559
IRIDIUM 105             
1 41921U 17003E   25095.16092868  .00000127  00000+0  38198-4 0  9991
2 41921  86.3962 239.8445 0002073  88.9260 271.2173 14.34215148432356
IRIDIUM 104             
1 41922U 17003F   25095.55173855  .00000055  00000+0  12583-4 0  9991
2 41922  86.3912 271.2956 0002375  81.3135 278.8330 14.34218152430547
IRIDIUM 114             
1 41923U 17003G   25095.55808037  .00000073  00000+0  18954-4 0  9997
2 41923  86.3911 271.2777 0001979  85.2709 274.8712 14.34217992430548
IRIDIUM 108             
1 41924U 17003H   25095.09799069  .00000557  00000+0  19173-3 0  9991
2 41924  86.3955 239.7764 0001908  98.0969 262.0444 14.34218105432331
